{"fetched_at":"2026-07-13T05:28:12.237Z","source":"https://celestrak.org/NORAD/elements/gp.php?NAME=HULIANWANG&FORMAT=JSON","constellation":"guowang","records":[{"OBJECT_NAME":"HULIANWANG DIGUI-92","OBJECT_ID":"2025-231F","EPOCH":"2026-07-11T20:46:38.862048","CLASSIFICATION_TYPE":"U","MEAN_MOTION":13.29328734,"ECCENTRICITY":0.0000604,"INCLINATION":50.0052,"RA_OF_ASC_NODE":87.1437,"ARG_OF_PERICENTER":325.8243,"MEAN_ANOMALY":34.2591,"EPHEMERIS_TYPE":0,"NORAD_CAT_ID":66000,"ELEMENT_SET_NO":999,"REV_AT_EPOCH":3617,"BSTAR":-0.0000064787,"MEAN_MOTION_DOT":-0.00000127,"MEAN_MOTION_DDOT":0},{"OBJECT_NAME":"HULIANWANG DIGUI-93","OBJECT_ID":"2025-231G","EPOCH":"2026-07-11T02:19:57.408672","CLASSIFICATION_TYPE":"U","MEAN_MOTION":13.29327792,"ECCENTRICITY":0.0000585,"INCLINATION":50.0019,"RA_OF_ASC_NODE":89.6887,"ARG_OF_PERICENTER":320.0674,"MEAN_ANOMALY":40.0154,"EPHEMERIS_TYPE":0,"NORAD_CAT_ID":66001,"ELEMENT_SET_NO":999,"REV_AT_EPOCH":3607,"BSTAR":0.000011276,"MEAN_MOTION_DOT":-0.00000119,"MEAN_MOTION_DDOT":0},{"OBJECT_NAME":"HULIANWANG DIGUI-94","OBJECT_ID":"2025-231H","EPOCH":"2026-07-10T22:55:40.861056","CLASSIFICATION_TYPE":"U","MEAN_MOTION":13.29325781,"ECCENTRICITY":0.00006218,"INCLINATION":50.0062,"RA_OF_ASC_NODE":90.3536,"ARG_OF_PERICENTER":320.1201,"MEAN_ANOMALY":39.9625,"EPHEMERIS_TYPE":0,"NORAD_CAT_ID":66002,"ELEMENT_SET_NO":999,"REV_AT_EPOCH":3605,"BSTAR":0.000001864868,"MEAN_MOTION_DOT":-0.00000123,"MEAN_MOTION_DDOT":0},{"OBJECT_NAME":"HULIANWANG DIGUI-95","OBJECT_ID":"2025-231J","EPOCH":"2026-07-12T16:01:25.856832","CLASSIFICATION_TYPE":"U","MEAN_MOTION":13.2933234,"ECCENTRICITY":0.0000544,"INCLINATION":50.0034,"RA_OF_ASC_NODE":84.0083,"ARG_OF_PERICENTER":331.7259,"MEAN_ANOMALY":28.3583,"EPHEMERIS_TYPE":0,"NORAD_CAT_ID":66003,"ELEMENT_SET_NO":999,"REV_AT_EPOCH":3628,"BSTAR":0.000040377,"MEAN_MOTION_DOT":-0.00000105,"MEAN_MOTION_DDOT":0},{"OBJECT_NAME":"HULIANWANG DIGUI-96","OBJECT_ID":"2025-258A","EPOCH":"2026-07-12T00:21:13.605120","CLASSIFICATION_TYPE":"U","MEAN_MOTION":13.29327019,"ECCENTRICITY":0.0000877,"INCLINATION":50.0022,"RA_OF_ASC_NODE":206.5937,"ARG_OF_PERICENTER":238.9635,"MEAN_ANOMALY":121.1151,"EPHEMERIS_TYPE":0,"NORAD_CAT_ID":66412,"ELEMENT_SET_NO":999,"REV_AT_EPOCH":3303,"BSTAR":0.000077017,"MEAN_MOTION_DOT":-8.8e-7,"MEAN_MOTION_DDOT":0},{"OBJECT_NAME":"HULIANWANG DIGUI-97","OBJECT_ID":"2025-258B","EPOCH":"2026-07-12T10:10:34.149504","CLASSIFICATION_TYPE":"U","MEAN_MOTION":13.293266,"ECCENTRICITY":0.00010449,"INCLINATION":49.9983,"RA_OF_ASC_NODE":205.3511,"ARG_OF_PERICENTER":240.0293,"MEAN_ANOMALY":120.0476,"EPHEMERIS_TYPE":0,"NORAD_CAT_ID":66413,"ELEMENT_SET_NO":999,"REV_AT_EPOCH":3308,"BSTAR":0.000074050381,"MEAN_MOTION_DOT":-9e-7,"MEAN_MOTION_DDOT":0},{"OBJECT_NAME":"HULIANWANG DIGUI-98","OBJECT_ID":"2025-258C","EPOCH":"2026-07-12T09:58:44.266368","CLASSIFICATION_TYPE":"U","MEAN_MOTION":13.29323016,"ECCENTRICITY":0.00011215,"INCLINATION":50.002,"RA_OF_ASC_NODE":205.3856,"ARG_OF_PERICENTER":235.6246,"MEAN_ANOMALY":124.452,"EPHEMERIS_TYPE":0,"NORAD_CAT_ID":66414,"ELEMENT_SET_NO":999,"REV_AT_EPOCH":3308,"BSTAR":0.000071117392,"MEAN_MOTION_DOT":-9.1e-7,"MEAN_MOTION_DDOT":0},{"OBJECT_NAME":"HULIANWANG DIGUI-99","OBJECT_ID":"2025-258D","EPOCH":"2026-07-12T10:58:47.267328","CLASSIFICATION_TYPE":"U","MEAN_MOTION":13.29326362,"ECCENTRICITY":0.00009841,"INCLINATION":50.0022,"RA_OF_ASC_NODE":204.9349,"ARG_OF_PERICENTER":243.9419,"MEAN_ANOMALY":116.1352,"EPHEMERIS_TYPE":0,"NORAD_CAT_ID":66415,"ELEMENT_SET_NO":999,"REV_AT_EPOCH":3308,"BSTAR":0.000077818231,"MEAN_MOTION_DOT":-8.8e-7,"MEAN_MOTION_DDOT":0},{"OBJECT_NAME":"HULIANWANG DIGUI-100","OBJECT_ID":"2025-258E","EPOCH":"2026-07-12T11:34:57.254304","CLASSIFICATION_TYPE":"U","MEAN_MOTION":13.29322975,"ECCENTRICITY":0.00010261,"INCLINATION":50.0021,"RA_OF_ASC_NODE":205.0769,"ARG_OF_PERICENTER":249.3281,"MEAN_ANOMALY":110.7481,"EPHEMERIS_TYPE":0,"NORAD_CAT_ID":66416,"ELEMENT_SET_NO":999,"REV_AT_EPOCH":3310,"BSTAR":0.000066380609,"MEAN_MOTION_DOT":-9.3e-7,"MEAN_MOTION_DDOT":0},{"OBJECT_NAME":"HULIANWANG DIGUI-101","OBJECT_ID":"2025-258F","EPOCH":"2026-07-12T09:34:25.068864","CLASSIFICATION_TYPE":"U","MEAN_MOTION":13.29327007,"ECCENTRICITY":0.00008537,"INCLINATION":49.9973,"RA_OF_ASC_NODE":205.1958,"ARG_OF_PERICENTER":242.1666,"MEAN_ANOMALY":117.912,"EPHEMERIS_TYPE":0,"NORAD_CAT_ID":66417,"ELEMENT_SET_NO":999,"REV_AT_EPOCH":3309,"BSTAR":0.000088898653,"MEAN_MOTION_DOT":-8.3e-7,"MEAN_MOTION_DDOT":0},{"OBJECT_NAME":"HULIANWANG DIGUI-102","OBJECT_ID":"2025-258G","EPOCH":"2026-07-12T01:45:28.819008","CLASSIFICATION_TYPE":"U","MEAN_MOTION":13.29323039,"ECCENTRICITY":0.0000911,"INCLINATION":49.9988,"RA_OF_ASC_NODE":206.169,"ARG_OF_PERICENTER":238.3695,"MEAN_ANOMALY":121.7089,"EPHEMERIS_TYPE":0,"NORAD_CAT_ID":66418,"ELEMENT_SET_NO":999,"REV_AT_EPOCH":3304,"BSTAR":0.000085526,"MEAN_MOTION_DOT":-8.4e-7,"MEAN_MOTION_DDOT":0},{"OBJECT_NAME":"HULIANWANG DIGUI-103","OBJECT_ID":"2025-258H","EPOCH":"2026-07-12T01:33:16.740576","CLASSIFICATION_TYPE":"U","MEAN_MOTION":13.29326105,"ECCENTRICITY":0.0001011,"INCLINATION":49.998,"RA_OF_ASC_NODE":206.1103,"ARG_OF_PERICENTER":248.2022,"MEAN_ANOMALY":111.8742,"EPHEMERIS_TYPE":0,"NORAD_CAT_ID":66419,"ELEMENT_SET_NO":999,"REV_AT_EPOCH":3304,"BSTAR":0.000072655,"MEAN_MOTION_DOT":-9e-7,"MEAN_MOTION_DDOT":0},{"OBJECT_NAME":"HULIANWANG DIGUI-104","OBJECT_ID":"2025-258J","EPOCH":"2026-07-12T01:21:18.633024","CLASSIFICATION_TYPE":"U","MEAN_MOTION":13.29326217,"ECCENTRICITY":0.00009655,"INCLINATION":49.9998,"RA_OF_ASC_NODE":206.1061,"ARG_OF_PERICENTER":237.3163,"MEAN_ANOMALY":122.7617,"EPHEMERIS_TYPE":0,"NORAD_CAT_ID":66420,"ELEMENT_SET_NO":999,"REV_AT_EPOCH":3303,"BSTAR":0.00007414402,"MEAN_MOTION_DOT":-9e-7,"MEAN_MOTION_DDOT":0},{"OBJECT_NAME":"HULIANWANG DIGUI-105","OBJECT_ID":"2025-285A","EPOCH":"2026-07-12T19:29:45.305088","CLASSIFICATION_TYPE":"U","MEAN_MOTION":13.29322581,"ECCENTRICITY":0.0001,"INCLINATION":50.0059,"RA_OF_ASC_NODE":54.3176,"ARG_OF_PERICENTER":24.732,"MEAN_ANOMALY":335.36,"EPHEMERIS_TYPE":0,"NORAD_CAT_ID":66915,"ELEMENT_SET_NO":999,"REV_AT_EPOCH":2946,"BSTAR":0.000041912,"MEAN_MOTION_DOT":-0.00000105,"MEAN_MOTION_DDOT":0},{"OBJECT_NAME":"HULIANWANG DIGUI-106","OBJECT_ID":"2025-285B","EPOCH":"2026-07-12T15:41:08.683008","CLASSIFICATION_TYPE":"U","MEAN_MOTION":13.29323032,"ECCENTRICITY":0.0001004,"INCLINATION":50.0069,"RA_OF_ASC_NODE":54.8335,"ARG_OF_PERICENTER":24.6637,"MEAN_ANOMALY":335.4283,"EPHEMERIS_TYPE":0,"NORAD_CAT_ID":66916,"ELEMENT_SET_NO":999,"REV_AT_EPOCH":2944,"BSTAR":0.000047379,"MEAN_MOTION_DOT":-0.00000102,"MEAN_MOTION_DDOT":0},{"OBJECT_NAME":"HULIANWANG DIGUI-107","OBJECT_ID":"2025-285C","EPOCH":"2026-07-12T19:05:26.657088","CLASSIFICATION_TYPE":"U","MEAN_MOTION":13.29325949,"ECCENTRICITY":0.0000972,"INCLINATION":50.0035,"RA_OF_ASC_NODE":54.189,"ARG_OF_PERICENTER":29.0194,"MEAN_ANOMALY":331.0732,"EPHEMERIS_TYPE":0,"NORAD_CAT_ID":66917,"ELEMENT_SET_NO":999,"REV_AT_EPOCH":2946,"BSTAR":0.000032042,"MEAN_MOTION_DOT":-0.00000109,"MEAN_MOTION_DDOT":0}]}
