HULIANWANG DIGUI-92     
1 66000U 25231F   26192.86572757 -.00000127  00000+0 -64787-5 0  9990
2 66000  50.0052  87.1437 0000604 325.8243  34.2591 13.29328734 36176
HULIANWANG DIGUI-93     
1 66001U 25231G   26192.09719223 -.00000119  00000+0  11276-4 0  9991
2 66001  50.0019  89.6887 0000585 320.0674  40.0154 13.29327792 36071
HULIANWANG DIGUI-94     
1 66002U 25231H   26191.95533404 -.00000123  00000+0  18649-5 0  9998
2 66002  50.0062  90.3536 0000621 320.1201  39.9625 13.29325781 36052
HULIANWANG DIGUI-95     
1 66003U 25231J   26193.66766038 -.00000105  00000+0  40377-4 0  9992
2 66003  50.0034  84.0083 0000544 331.7259  28.3583 13.29332340 36283
HULIANWANG DIGUI-96     
1 66412U 25258A   26193.01474080 -.00000088  00000+0  77017-4 0  9998
2 66412  50.0022 206.5937 0000877 238.9635 121.1151 13.29327019 33038
HULIANWANG DIGUI-97     
1 66413U 25258B   26193.42400636 -.00000090  00000+0  74050-4 0  9997
2 66413  49.9983 205.3511 0001044 240.0293 120.0476 13.29326600 33086
HULIANWANG DIGUI-98     
1 66414U 25258C   26193.41579012 -.00000091  00000+0  71117-4 0  9994
2 66414  50.0020 205.3856 0001121 235.6246 124.4520 13.29323016 33084
HULIANWANG DIGUI-99     
1 66415U 25258D   26193.45749152 -.00000088  00000+0  77818-4 0  9993
2 66415  50.0022 204.9349 0000984 243.9419 116.1352 13.29326362 33087
HULIANWANG DIGUI-100    
1 66416U 25258E   26193.48260711 -.00000093  00000+0  66381-4 0  9995
2 66416  50.0021 205.0769 0001026 249.3281 110.7481 13.29322975 33102
HULIANWANG DIGUI-101    
1 66417U 25258F   26193.39890126 -.00000083  00000+0  88899-4 0  9992
2 66417  49.9973 205.1958 0000853 242.1666 117.9120 13.29327007 33090
HULIANWANG DIGUI-102    
1 66418U 25258G   26193.07325022 -.00000084  00000+0  85526-4 0  9991
2 66418  49.9988 206.1690 0000911 238.3695 121.7089 13.29323039 33048
HULIANWANG DIGUI-103    
1 66419U 25258H   26193.06477709 -.00000090  00000+0  72655-4 0  9997
2 66419  49.9980 206.1103 0001011 248.2022 111.8742 13.29326105 33049
HULIANWANG DIGUI-104    
1 66420U 25258J   26193.05646566 -.00000090  00000+0  74144-4 0  9992
2 66420  49.9998 206.1061 0000965 237.3163 122.7617 13.29326217 33030
HULIANWANG DIGUI-105    
1 66915U 25285A   26193.81232992 -.00000105  00000+0  41912-4 0  9993
2 66915  50.0059  54.3176 0001000  24.7320 335.3600 13.29322581 29460
HULIANWANG DIGUI-106    
1 66916U 25285B   26193.65357272 -.00000102  00000+0  47379-4 0  9995
2 66916  50.0069  54.8335 0001004  24.6637 335.4283 13.29323032 29446
HULIANWANG DIGUI-107    
1 66917U 25285C   26193.79544742 -.00000109  00000+0  32042-4 0  9999
2 66917  50.0035  54.1890 0000972  29.0194 331.0732 13.29325949 29461
